{"type": "FeatureCollection", "features": [ {"type": "Feature", "properties": {"norad_id": 38552, "name": "METEOSAT-10 (MSG-3)", "group": "weather", "lat": 0.03873916145290545, "lon": 62.019944698765975, "alt_km": 35786.69978052628, "timestamp": "2025-12-11T22:43:46.913176+00:00", "meta": {"OBJECT_NAME": "METEOSAT-10 (MSG-3)", "OBJECT_ID": "2012-035B", "EPOCH": "2025-12-10T23:48:54.537696", "MEAN_MOTION": 1.00274457, "ECCENTRICITY": 8.27e-05, "INCLINATION": 4.2251, "RA_OF_ASC_NODE": 61.7286, "ARG_OF_PERICENTER": 246.6369, "MEAN_ANOMALY": 128.9806, "EPHEMERIS_TYPE": 0, "CLASSIFICATION_TYPE": "U", "NORAD_CAT_ID": 38552, "ELEMENT_SET_NO": 999, "REV_AT_EPOCH": 4897, "BSTAR": 0, "MEAN_MOTION_DOT": -1e-08, "MEAN_MOTION_DDOT": 0}, "tle": {"line1": "1 38552U 12035B   25344.99229789 -.00000001  00000+0  00000+0 0  9997", "line2": "2 38552   4.2251  61.7286 0000827 246.6369 128.9806  1.00274457 48974"}}, "geometry": {"type": "Point", "coordinates": [62.019944698765975, 0.03873916145290545]}}, {"type": "Feature", "properties": {"norad_id": 38771, "name": "METOP-B", "group": "weather", "lat": -6.111181033092717, "lon": 36.85644735686129, "alt_km": 826.0856481590818, "timestamp": "2025-12-11T22:43:46.913187+00:00", "meta": {"OBJECT_NAME": "METOP-B", "OBJECT_ID": "2012-049A", "EPOCH": "2025-12-11T14:18:41.816448", "MEAN_MOTION": 14.2140769, "ECCENTRICITY": 0.00028597, "INCLINATION": 98.6801, "RA_OF_ASC_NODE": 35.5745, "ARG_OF_PERICENTER": 146.5695, "MEAN_ANOMALY": 213.5664, "EPHEMERIS_TYPE": 0, "CLASSIFICATION_TYPE": "U", "NORAD_CAT_ID": 38771, "ELEMENT_SET_NO": 999, "REV_AT_EPOCH": 68661, "BSTAR": 0.0001186863, "MEAN_MOTION_DOT": 2.16e-06, "MEAN_MOTION_DDOT": 0}, "tle": {"line1": "1 38771U 12049A   25345.59631732  .00000216  00000+0  11869-3 0  9993", "line2": "2 38771  98.6801  35.5745 0002859 146.5695 213.5664 14.21407690686617"}}, "geometry": {"type": "Point", "coordinates": [36.85644735686129, -6.111181033092717]}}, {"type": "Feature", "properties": {"norad_id": 39216, "name": "INSAT-3D", "group": "weather", "lat": 1.3748230600531646, "lon": -168.62790799839007, "alt_km": 35782.886915032956, "timestamp": "2025-12-11T22:43:46.913199+00:00", "meta": {"OBJECT_NAME": "INSAT-3D", "OBJECT_ID": "2013-038B", "EPOCH": "2025-12-11T14:07:41.519136", "MEAN_MOTION": 1.00270463, "ECCENTRICITY": 0.00015226, "INCLINATION": 1.4423, "RA_OF_ASC_NODE": 85.0014, "ARG_OF_PERICENTER": 164.0183, "MEAN_ANOMALY": 172.9911, "EPHEMERIS_TYPE": 0, "CLASSIFICATION_TYPE": "U", "NORAD_CAT_ID": 39216, "ELEMENT_SET_NO": 999, "REV_AT_EPOCH": 4519, "BSTAR": 0, "MEAN_MOTION_DOT": -3.32e-06, "MEAN_MOTION_DDOT": 0}, "tle": {"line1": "1 39216U 13038B   25345.58867499 -.00000332  00000+0  00000+0 0  9998", "line2": "2 39216   1.4423  85.0014 0001522 164.0183 172.9911  1.00270463 45190"}}, "geometry": {"type": "Point", "coordinates": [-168.62790799839007, 1.3748230600531646]}}, {"type": "Feature", "properties": {"norad_id": 39260, "name": "FENGYUN 3C", "group": "weather", "lat": -74.86411189652486, "lon": 110.20930361409329, "alt_km": 841.9452325811753, "timestamp": "2025-12-11T22:43:46.913212+00:00", "meta": {"OBJECT_NAME": "FENGYUN 3C", "OBJECT_ID": "2013-052A", "EPOCH": "2025-12-11T14:43:58.602144", "MEAN_MOTION": 14.15695765, "ECCENTRICITY": 0.00142246, "INCLINATION": 98.4762, "RA_OF_ASC_NODE": 323.3482, "ARG_OF_PERICENTER": 199.3707, "MEAN_ANOMALY": 160.6929, "EPHEMERIS_TYPE": 0, "CLASSIFICATION_TYPE": "U", "NORAD_CAT_ID": 39260, "ELEMENT_SET_NO": 999, "REV_AT_EPOCH": 63202, "BSTAR": 0.00012071065, "MEAN_MOTION_DOT": 1.96e-06, "MEAN_MOTION_DDOT": 0}, "tle": {"line1": "1 39260U 13052A   25345.61387271  .00000196  00000+0  12071-3 0  9994", "line2": "2 39260  98.4762 323.3482 0014224 199.3707 160.6929 14.15695765632027"}}, "geometry": {"type": "Point", "coordinates": [110.20930361409329, -74.86411189652486]}}, {"type": "Feature", "properties": {"norad_id": 40069, "name": "METEOR-M 2", "group": "weather", "lat": -41.90021754701179, "lon": 135.85937838771943, "alt_km": 823.7362218894832, "timestamp": "2025-12-11T22:43:46.913223+00:00", "meta": {"OBJECT_NAME": "METEOR-M 2", "OBJECT_ID": "2014-037A", "EPOCH": "2025-12-11T14:55:43.423104", "MEAN_MOTION": 14.2138611, "ECCENTRICITY": 0.00049189, "INCLINATION": 98.4904, "RA_OF_ASC_NODE": 323.2492, "ARG_OF_PERICENTER": 213.6608, "MEAN_ANOMALY": 146.4258, "EPHEMERIS_TYPE": 0, "CLASSIFICATION_TYPE": "U", "NORAD_CAT_ID": 40069, "ELEMENT_SET_NO": 999, "REV_AT_EPOCH": 59267, "BSTAR": 0.00018144395, "MEAN_MOTION_DOT": 3.54e-06, "MEAN_MOTION_DDOT": 0}, "tle": {"line1": "1 40069U 14037A   25345.62203036  .00000354  00000+0  18144-3 0  9997", "line2": "2 40069  98.4904 323.2492 0004918 213.6608 146.4258 14.21386110592674"}}, "geometry": {"type": "Point", "coordinates": [135.85937838771943, -41.90021754701179]}}, {"type": "Feature", "properties": {"norad_id": 40267, "name": "HIMAWARI-8", "group": "weather", "lat": -0.016598250538328394, "lon": -157.5205628830545, "alt_km": 35787.52478454707, "timestamp": "2025-12-11T22:43:46.913248+00:00", "meta": {"OBJECT_NAME": "HIMAWARI-8", "OBJECT_ID": "2014-060A", "EPOCH": "2025-12-11T14:10:41.232000", "MEAN_MOTION": 1.00270191, "ECCENTRICITY": 0.00012198, "INCLINATION": 0.0353, "RA_OF_ASC_NODE": 192.9381, "ARG_OF_PERICENTER": 110.4566, "MEAN_ANOMALY": 130.4805, "EPHEMERIS_TYPE": 0, "CLASSIFICATION_TYPE": "U", "NORAD_CAT_ID": 40267, "ELEMENT_SET_NO": 999, "REV_AT_EPOCH": 4087, "BSTAR": 0, "MEAN_MOTION_DOT": -2.68e-06, "MEAN_MOTION_DDOT": 0}, "tle": {"line1": "1 40267U 14060A   25345.59075500 -.00000268  00000+0  00000+0 0  9995", "line2": "2 40267   0.0353 192.9381 0001219 110.4566 130.4805  1.00270191 40872"}}, "geometry": {"type": "Point", "coordinates": [-157.5205628830545, -0.016598250538328394]}}, {"type": "Feature", "properties": {"norad_id": 40367, "name": "FENGYUN 2G", "group": "weather", "lat": 5.15791322060247, "lon": 161.34735313443403, "alt_km": 35791.949571289624, "timestamp": "2025-12-11T22:43:46.913262+00:00", "meta": {"OBJECT_NAME": "FENGYUN 2G", "OBJECT_ID": "2014-090A", "EPOCH": "2025-12-11T15:41:47.506848", "MEAN_MOTION": 1.00264387, "ECCENTRICITY": 0.00031248, "INCLINATION": 5.1659, "RA_OF_ASC_NODE": 75.109, "ARG_OF_PERICENTER": 195.9109, "MEAN_ANOMALY": 144.5966, "EPHEMERIS_TYPE": 0, "CLASSIFICATION_TYPE": "U", "NORAD_CAT_ID": 40367, "ELEMENT_SET_NO": 999, "REV_AT_EPOCH": 4011, "BSTAR": 0, "MEAN_MOTION_DOT": -2.94e-06, "MEAN_MOTION_DDOT": 0}, "tle": {"line1": "1 40367U 14090A   25345.65402207 -.00000294  00000+0  00000+0 0  9993", "line2": "2 40367   5.1659  75.1090 0003124 195.9109 144.5966  1.00264387 40116"}}, "geometry": {"type": "Point", "coordinates": [161.34735313443403, 5.15791322060247]}}, {"type": "Feature", "properties": {"norad_id": 40732, "name": "METEOSAT-11 (MSG-4)", "group": "weather", "lat": -0.022665321971554936, "lon": 71.13865271521053, "alt_km": 35789.68265294177, "timestamp": "2025-12-11T22:43:46.913275+00:00", "meta": {"OBJECT_NAME": "METEOSAT-11 (MSG-4)", "OBJECT_ID": "2015-034A", "EPOCH": "2025-12-11T04:59:33.728928", "MEAN_MOTION": 1.00267015, "ECCENTRICITY": 9.465e-05, "INCLINATION": 2.7315, "RA_OF_ASC_NODE": 72.0057, "ARG_OF_PERICENTER": 124.5533, "MEAN_ANOMALY": 327.8196, "EPHEMERIS_TYPE": 0, "CLASSIFICATION_TYPE": "U", "NORAD_CAT_ID": 40732, "ELEMENT_SET_NO": 999, "REV_AT_EPOCH": 533, "BSTAR": 0, "MEAN_MOTION_DOT": 6.7e-07, "MEAN_MOTION_DDOT": 0}, "tle": {"line1": "1 40732U 15034A   25345.20802927  .00000067  00000+0  00000+0 0  9999", "line2": "2 40732   2.7315  72.0057 0000946 124.5533 327.8196  1.00267015  5338"}}, "geometry": {"type": "Point", "coordinates": [71.13865271521053, -0.022665321971554936]}}, {"type": "Feature", "properties": {"norad_id": 41105, "name": "ELEKTRO-L 2", "group": "weather", "lat": -2.656314942468413, "lon": 47.50848741272318, "alt_km": 35797.96185448145, "timestamp": "2025-12-11T22:43:46.913288+00:00", "meta": {"OBJECT_NAME": "ELEKTRO-L 2", "OBJECT_ID": "2015-074A", "EPOCH": "2025-12-11T02:11:38.541984", "MEAN_MOTION": 1.00272182, "ECCENTRICITY": 0.00038781, "INCLINATION": 6.222, "RA_OF_ASC_NODE": 72.8471, "ARG_OF_PERICENTER": 199.5378, "MEAN_ANOMALY": 186.0824, "EPHEMERIS_TYPE": 0, "CLASSIFICATION_TYPE": "U", "NORAD_CAT_ID": 41105, "ELEMENT_SET_NO": 999, "REV_AT_EPOCH": 3662, "BSTAR": 0, "MEAN_MOTION_DOT": -1.12e-06, "MEAN_MOTION_DDOT": 0}, "tle": {"line1": "1 41105U 15074A   25345.09141831 -.00000112  00000+0  00000+0 0  9997", "line2": "2 41105   6.2220  72.8471 0003878 199.5378 186.0824  1.00272182 36621"}}, "geometry": {"type": "Point", "coordinates": [47.50848741272318, -2.656314942468413]}}, {"type": "Feature", "properties": {"norad_id": 41752, "name": "INSAT-3DR", "group": "weather", "lat": 0.07379428341986223, "lon": 135.72184577900444, "alt_km": 35829.26556499781, "timestamp": "2025-12-11T22:43:46.913300+00:00", "meta": {"OBJECT_NAME": "INSAT-3DR", "OBJECT_ID": "2016-054A", "EPOCH": "2025-12-11T13:51:50.536800", "MEAN_MOTION": 1.00270715, "ECCENTRICITY": 0.00144156, "INCLINATION": 0.0891, "RA_OF_ASC_NODE": 86.6032, "ARG_OF_PERICENTER": 183.9498, "MEAN_ANOMALY": 91.9438, "EPHEMERIS_TYPE": 0, "CLASSIFICATION_TYPE": "U", "NORAD_CAT_ID": 41752, "ELEMENT_SET_NO": 999, "REV_AT_EPOCH": 3393, "BSTAR": 0, "MEAN_MOTION_DOT": -7e-07, "MEAN_MOTION_DDOT": 0}, "tle": {"line1": "1 41752U 16054A   25345.57766825 -.00000070  00000+0  00000+0 0  9996", "line2": "2 41752   0.0891  86.6032 0014415 183.9498  91.9438  1.00270715 33936"}}, "geometry": {"type": "Point", "coordinates": [135.72184577900444, 0.07379428341986223]}}]}